{
  "type": "FeatureCollection",
  "features": [
    {
      "type": "Feature",
      "properties": {
        "norad_id": 64751,
        "name": "PROGRESS-MS 31",
        "group": "stations",
        "lat": -50.58428437448955,
        "lon": 2.9940490384277814,
        "alt_km": 420.16958183735824,
        "timestamp": "2025-12-19T14:48:34.990311+00:00",
        "meta_object_name": "PROGRESS-MS 31",
        "meta_object_id": "2025-146A",
        "meta_epoch": "2025-12-19T01:18:34.104096",
        "meta_mean_motion": 15.49660414,
        "meta_eccentricity": 0.00031768,
        "meta_inclination": 51.6316,
        "meta_ra_of_asc_node": 111.2076,
        "meta_arg_of_pericenter": 269.7772,
        "meta_mean_anomaly": 90.2853,
        "meta_ephemeris_type": 0,
        "meta_classification_type": "U",
        "meta_norad_cat_id": 64751,
        "meta_element_set_no": 999,
        "meta_rev_at_epoch": 675,
        "meta_bstar": 0.00012867135,
        "meta_mean_motion_dot": 6.809e-05,
        "meta_mean_motion_ddot": 0,
        "tle_line1": "1 64751U 25146A   25353.05456139  .00006809  00000+0  12867-3 0  9991",
        "tle_line2": "2 64751  51.6316 111.2076 0003176 269.7772  90.2853 15.49660414  6757"
      },
      "geometry": {
        "type": "Point",
        "coordinates": [
          2.9940490384277814,
          -50.58428437448955
        ]
      }
    },
    {
      "type": "Feature",
      "properties": {
        "norad_id": 64786,
        "name": "TIANZHOU-9",
        "group": "stations",
        "lat": -40.98473291132315,
        "lon": -104.73383834613797,
        "alt_km": 397.4711821056526,
        "timestamp": "2025-12-19T14:48:34.990326+00:00",
        "meta_object_name": "TIANZHOU-9",
        "meta_object_id": "2025-149A",
        "meta_epoch": "2025-12-19T05:56:22.256448",
        "meta_mean_motion": 15.59458428,
        "meta_eccentricity": 0.00077261,
        "meta_inclination": 41.4684,
        "meta_ra_of_asc_node": 337.1916,
        "meta_arg_of_pericenter": 88.0762,
        "meta_mean_anomaly": 272.0962,
        "meta_ephemeris_type": 0,
        "meta_classification_type": "U",
        "meta_norad_cat_id": 64786,
        "meta_element_set_no": 999,
        "meta_rev_at_epoch": 25530,
        "meta_bstar": 0.00024976186,
        "meta_mean_motion_dot": 0.00020088,
        "meta_mean_motion_ddot": 0,
        "tle_line1": "1 64786U 25149A   25353.24747982  .00020088  00000+0  24976-3 0  9991",
        "tle_line2": "2 64786  41.4684 337.1916 0007726  88.0762 272.0962 15.59458428255307"
      },
      "geometry": {
        "type": "Point",
        "coordinates": [
          -104.73383834613797,
          -40.98473291132315
        ]
      }
    },
    {
      "type": "Feature",
      "properties": {
        "norad_id": 65077,
        "name": "CREW DRAGON 11",
        "group": "stations",
        "lat": -50.584284710866356,
        "lon": 2.994051522074639,
        "alt_km": 420.1695818343869,
        "timestamp": "2025-12-19T14:48:34.990336+00:00",
        "meta_object_name": "CREW DRAGON 11",
        "meta_object_id": "2025-166A",
        "meta_epoch": "2025-12-19T01:18:34.104096",
        "meta_mean_motion": 15.49660414,
        "meta_eccentricity": 0.00031768,
        "meta_inclination": 51.6316,
        "meta_ra_of_asc_node": 111.2076,
        "meta_arg_of_pericenter": 269.7772,
        "meta_mean_anomaly": 90.2853,
        "meta_ephemeris_type": 0,
        "meta_classification_type": "U",
        "meta_norad_cat_id": 65077,
        "meta_element_set_no": 999,
        "meta_rev_at_epoch": 214,
        "meta_bstar": 0.00012867135,
        "meta_mean_motion_dot": 6.809e-05,
        "meta_mean_motion_ddot": 0,
        "tle_line1": "1 65077U 25166A   25353.05456139  .00006809  00000+0  12867-3 0  9995",
        "tle_line2": "2 65077  51.6316 111.2076 0003176 269.7772  90.2853 15.49660414  2148"
      },
      "geometry": {
        "type": "Point",
        "coordinates": [
          2.994051522074639,
          -50.584284710866356
        ]
      }
    },
    {
      "type": "Feature",
      "properties": {
        "norad_id": 65304,
        "name": "DRAGON CRS-33",
        "group": "stations",
        "lat": -50.584284858872294,
        "lon": 2.994052614880327,
        "alt_km": 420.16958183307906,
        "timestamp": "2025-12-19T14:48:34.990347+00:00",
        "meta_object_name": "DRAGON CRS-33",
        "meta_object_id": "2025-186A",
        "meta_epoch": "2025-12-19T01:18:34.104096",
        "meta_mean_motion": 15.49660414,
        "meta_eccentricity": 0.00031768,
        "meta_inclination": 51.6316,
        "meta_ra_of_asc_node": 111.2076,
        "meta_arg_of_pericenter": 269.7772,
        "meta_mean_anomaly": 90.2853,
        "meta_ephemeris_type": 0,
        "meta_classification_type": "U",
        "meta_norad_cat_id": 65304,
        "meta_element_set_no": 999,
        "meta_rev_at_epoch": 11,
        "meta_bstar": 0.00012867135,
        "meta_mean_motion_dot": 6.809e-05,
        "meta_mean_motion_ddot": 0,
        "tle_line1": "1 65304U 25186A   25353.05456139  .00006809  00000+0  12867-3 0  9990",
        "tle_line2": "2 65304  51.6316 111.2076 0003176 269.7772  90.2853 15.49660414   116"
      },
      "geometry": {
        "type": "Point",
        "coordinates": [
          2.994052614880327,
          -50.584284858872294
        ]
      }
    },
    {
      "type": "Feature",
      "properties": {
        "norad_id": 65586,
        "name": "PROGRESS-MS 32",
        "group": "stations",
        "lat": -50.58428499342308,
        "lon": 2.9940536083397213,
        "alt_km": 420.1695818318922,
        "timestamp": "2025-12-19T14:48:34.990357+00:00",
        "meta_object_name": "PROGRESS-MS 32",
        "meta_object_id": "2025-204A",
        "meta_epoch": "2025-12-19T01:18:34.104096",
        "meta_mean_motion": 15.49660414,
        "meta_eccentricity": 0.00031768,
        "meta_inclination": 51.6316,
        "meta_ra_of_asc_node": 111.2076,
        "meta_arg_of_pericenter": 269.7772,
        "meta_mean_anomaly": 90.2853,
        "meta_ephemeris_type": 0,
        "meta_classification_type": "U",
        "meta_norad_cat_id": 65586,
        "meta_element_set_no": 999,
        "meta_rev_at_epoch": 27,
        "meta_bstar": 0.00012867135,
        "meta_mean_motion_dot": 6.809e-05,
        "meta_mean_motion_ddot": 0,
        "tle_line1": "1 65586U 25204A   25353.05456139  .00006809  00000+0  12867-3 0  9993",
        "tle_line2": "2 65586  51.6316 111.2076 0003176 269.7772  90.2853 15.49660414   275"
      },
      "geometry": {
        "type": "Point",
        "coordinates": [
          2.9940536083397213,
          -50.58428499342308
        ]
      }
    },
    {
      "type": "Feature",
      "properties": {
        "norad_id": 65616,
        "name": "CYGNUS NG-23",
        "group": "stations",
        "lat": -50.58428511451903,
        "lon": 2.9940545024550573,
        "alt_km": 420.1695818308217,
        "timestamp": "2025-12-19T14:48:34.990366+00:00",
        "meta_object_name": "CYGNUS NG-23",
        "meta_object_id": "2025-208A",
        "meta_epoch": "2025-12-19T01:18:34.104096",
        "meta_mean_motion": 15.49660414,
        "meta_eccentricity": 0.00031768,
        "meta_inclination": 51.6316,
        "meta_ra_of_asc_node": 111.2076,
        "meta_arg_of_pericenter": 269.7772,
        "meta_mean_anomaly": 90.2853,
        "meta_ephemeris_type": 0,
        "meta_classification_type": "U",
        "meta_norad_cat_id": 65616,
        "meta_element_set_no": 999,
        "meta_rev_at_epoch": 22,
        "meta_bstar": 0.00012867135,
        "meta_mean_motion_dot": 6.809e-05,
        "meta_mean_motion_ddot": 0,
        "tle_line1": "1 65616U 25208A   25353.05456139  .00006809  00000+0  12867-3 0  9991",
        "tle_line2": "2 65616  51.6316 111.2076 0003176 269.7772  90.2853 15.49660414   224"
      },
      "geometry": {
        "type": "Point",
        "coordinates": [
          2.9940545024550573,
          -50.58428511451903
        ]
      }
    },
    {
      "type": "Feature",
      "properties": {
        "norad_id": 65729,
        "name": "DRAGONFLY",
        "group": "stations",
        "lat": 50.37996151065478,
        "lon": -152.70020374906895,
        "alt_km": 343.7201389046586,
        "timestamp": "2025-12-19T14:48:34.990376+00:00",
        "meta_object_name": "DRAGONFLY",
        "meta_object_id": "1998-067XH",
        "meta_epoch": "2025-12-18T14:00:17.390304",
        "meta_mean_motion": 15.73865471,
        "meta_eccentricity": 0.0007166,
        "meta_inclination": 51.6249,
        "meta_ra_of_asc_node": 105.7955,
        "meta_arg_of_pericenter": 314.6867,
        "meta_mean_anomaly": 45.3548,
        "meta_ephemeris_type": 0,
        "meta_classification_type": "U",
        "meta_norad_cat_id": 65729,
        "meta_element_set_no": 999,
        "meta_rev_at_epoch": 1408,
        "meta_bstar": 0.001129306,
        "meta_mean_motion_dot": 0.00166206,
        "meta_mean_motion_ddot": 0,
        "tle_line1": "1 65729U 98067XH  25352.58353461  .00166206  00000+0  11293-2 0  9999",
        "tle_line2": "2 65729  51.6249 105.7955 0007166 314.6867  45.3548 15.73865471 14084"
      },
      "geometry": {
        "type": "Point",
        "coordinates": [
          -152.70020374906895,
          50.37996151065478
        ]
      }
    }
  ]
}